[{"OBJECT_NAME":"STARLINK-35896","OBJECT_ID":"2025-280D","EPOCH":"2026-03-09T21:21:08.123904","MEAN_MOTION":14.98331242,"ECCENTRICITY":0.00027046,"INCLINATION":70.0024,"RA_OF_ASC_NODE":334.0424,"ARG_OF_PERICENTER":274.2001,"MEAN_ANOMALY":85.8848,"EPHEMERIS_TYPE":0,"CLASSIFICATION_TYPE":"U","NORAD_CAT_ID":66824,"ELEMENT_SET_NO":999,"REV_AT_EPOCH":1610,"BSTAR":0.00032907249,"MEAN_MOTION_DOT":3.836e-5,"MEAN_MOTION_DDOT":0},{"OBJECT_NAME":"COSMOS 2251 DEB","OBJECT_ID":"1993-036BTC","EPOCH":"2026-03-06T21:15:32.065056","MEAN_MOTION":14.78300657,"ECCENTRICITY":0.00931311,"INCLINATION":74.0491,"RA_OF_ASC_NODE":271.5054,"ARG_OF_PERICENTER":315.1951,"MEAN_ANOMALY":44.1729,"EPHEMERIS_TYPE":0,"CLASSIFICATION_TYPE":"U","NORAD_CAT_ID":38212,"ELEMENT_SET_NO":999,"REV_AT_EPOCH":82553,"BSTAR":0.00033586703,"MEAN_MOTION_DOT":2.587e-5,"MEAN_MOTION_DDOT":0}]
